NORAD_CAT_ID,OBJECT_NAME,OBJECT_TYPE,EPOCH,MEAN_MOTION,ECCENTRICITY,INCLINATION,RA_OF_ASC_NODE,ARG_OF_PERICENTER,MEAN_ANOMALY,BSTAR,MEAN_MOTION_DOT,MEAN_MOTION_DDOT,TLE_LINE0,TLE_LINE1,TLE_LINE2,SEMIMAJOR_AXIS,PERIOD,APOGEE,PERIGEE,DECAYED
55403.0,STARLINK-5597,PAYLOAD,2024-08-14 14:37:54,14.98316926,0.0003095,69.9959,66.8598,260.0911,99.9899,1.5217e-05,8.8e-07,0.0,0 STARLINK-5597,1 55403U 23014N   24227.60966043  .00000088  00000-0  15217-4 0  9994,2 55403  69.9959  66.8598 0003095 260.0911  99.9899 14.98316926 86369,6950.233,96.108,574.249,569.947,0.0
55403.0,STARLINK-5597,PAYLOAD,2024-08-14 19:26:18,14.98319452,0.0002091,69.9998,66.3588,273.7056,86.3863,0.00019482,2.232e-05,0.0,0 STARLINK-5597,1 55403U 23014N   24227.80993938  .00002232  00000-0  19482-3 0  9999,2 55403  69.9998  66.3588 0002091 273.7056  86.3863 14.98319452 85459,6950.226,96.108,573.544,570.637,0.0
55403.0,STARLINK-5597,PAYLOAD,2024-08-14 22:38:34,14.98320972,0.0002065,69.9999,66.0221,273.6666,86.4257,0.00020757,2.384e-05,0.0,0 STARLINK-5597,1 55403U 23014N   24227.94345945  .00002384  00000-0  20757-3 0  9998,2 55403  69.9999  66.0221 0002065 273.6666  86.4257 14.98320972 86412,6950.221,96.108,573.521,570.651,0.0
55403.0,STARLINK-5597,PAYLOAD,2024-08-15 19:28:19,14.98318142,0.0002846,69.9998,63.8335,257.794,102.29,0.00057806,6.809e-05,0.0,0 STARLINK-5597,1 55403U 23014N   24228.81133341  .00006809  00000-0  57806-3 0  9991,2 55403  69.9998  63.8335 0002846 257.7940 102.2900 14.98318142 85605,6950.23,96.108,574.073,570.117,0.0
55403.0,STARLINK-5597,PAYLOAD,2024-08-15 22:40:35,14.98319707,0.0002831,69.9998,63.4968,257.5553,102.5289,0.00058257,6.863e-05,0.0,0 STARLINK-5597,1 55403U 23014N   24228.94485467  .00006863  00000-0  58257-3 0  9995,2 55403  69.9998  63.4968 0002831 257.5553 102.5289 14.98319707 86562,6950.225,96.108,574.057,570.122,0.0
55403.0,STARLINK-5597,PAYLOAD,2024-08-16 21:06:27,14.98348693,0.0002739,69.9994,61.1397,261.1259,98.959,0.00021233,2.443e-05,0.0,0 STARLINK-5597,1 55403U 23014N   24229.87948549  .00002443  00000-0  21233-3 0  9997,2 55403  69.9994  61.1397 0002739 261.1259  98.9590 14.98348693 85760,6950.135,96.106,573.904,570.096,0.0
55403.0,STARLINK-5597,PAYLOAD,2024-08-16 22:42:35,14.98350012,0.0002731,69.9995,60.9715,261.1842,98.9008,0.0002282,2.632e-05,0.0,0 STARLINK-5597,1 55403U 23014N   24229.94624396  .00002632  00000-0  22820-3 0  9999,2 55403  69.9995  60.9715 0002731 261.1842  98.9008 14.98350012 86710,6950.131,96.106,573.894,570.098,0.0
55403.0,STARLINK-5597,PAYLOAD,2024-08-17 22:44:36,14.98341892,0.0002885,69.9996,58.4452,257.9079,102.1756,6.1564e-06,-2e-07,0.0,0 STARLINK-5597,1 55403U 23014N   24230.94764453 -.00000020  00000-0  61564-5 0  9990,2 55403  69.9996  58.4452 0002885 257.9079 102.1756 14.98341892 85922,6950.156,96.106,574.026,570.016,0.0
55403.0,STARLINK-5597,PAYLOAD,2024-08-18 19:34:21,14.98290159,0.0002546,69.9996,56.258,256.7497,103.3378,0.00093849,0.00011111,0.0,0 STARLINK-5597,1 55403U 23014N   24231.81552548  .00011111  00000-0  93849-3 0  9998,2 55403  69.9996  56.2580 0002546 256.7497 103.3378 14.98290159 86052,6950.316,96.11,573.951,570.412,0.0
55403.0,STARLINK-5597,PAYLOAD,2024-08-18 21:10:31,14.98181662,0.0001972,69.9999,56.09,250.1534,109.9412,0.0029665,0.00035344,0.0,0 STARLINK-5597,1 55403U 23014N   24231.88230552  .00035344  00000-0  29665-2 0  9991,2 55403  69.9999  56.0900 0001972 250.1534 109.9412 14.98181662 87006,6950.652,96.117,573.887,571.146,0.0
55403.0,STARLINK-5597,PAYLOAD,2024-08-18 22:46:36,14.98344649,0.0002865,69.9995,55.9213,264.7653,95.3179,-1.657e-05,-2.91e-06,0.0,0 STARLINK-5597,1 55403U 23014N   24231.94903620 -.00000291  00000-0 -16570-4 0  9999,2 55403  69.9995  55.9213 0002865 264.7653  95.3179 14.98344649 86072,6950.148,96.106,574.004,570.021,0.0
55403.0,STARLINK-5597,PAYLOAD,2024-08-19 11:35:41,14.98329651,0.0002594,70.0002,54.5753,264.5347,95.5516,9.4829e-05,1.039e-05,0.0,0 STARLINK-5597,1 55403U 23014N   24232.48312183  .00001039  00000-0  94829-4 0  9999,2 55403  70.0002  54.5753 0002594 264.5347  95.5516 14.98329651 86157,6950.194,96.107,573.862,570.256,0.0
55403.0,STARLINK-5597,PAYLOAD,2024-08-20 13:13:50,14.98335425,0.0002639,70.0002,51.8821,265.1362,94.9495,6.7591e-05,7.14e-06,0.0,0 STARLINK-5597,1 55403U 23014N   24233.55127832  .00000714  00000-0  67591-4 0  9998,2 55403  70.0002  51.8821 0002639 265.1362  94.9495 14.98335425 86310,6950.176,96.107,573.875,570.207,0.0
55403.0,STARLINK-5597,PAYLOAD,2024-08-20 14:49:58,14.98335011,0.0002654,70.0001,51.7138,264.9817,95.1039,6.0532e-05,6.29e-06,0.0,0 STARLINK-5597,1 55403U 23014N   24233.61803846  .00000629  00000-0  60532-4 0  9994,2 55403  70.0001  51.7138 0002654 264.9817  95.1039 14.98335011 87261,6950.177,96.107,573.887,570.198,0.0
55403.0,STARLINK-5597,PAYLOAD,2024-08-21 13:15:51,14.98328205,0.0002482,70.0009,49.3579,256.1,103.9883,3.4278e-05,3.16e-06,0.0,0 STARLINK-5597,1 55403U 23014N   24234.55268270  .00000316  00000-0  34278-4 0  9995,2 55403  70.0009  49.3579 0002482 256.1000 103.9883 14.98328205 86460,6950.198,96.107,573.788,570.338,0.0
55403.0,STARLINK-5597,PAYLOAD,2024-08-21 14:52:00,14.98324575,0.0002596,70.0,49.1881,264.9181,95.1682,5.2788e-06,-3e-07,0.0,0 STARLINK-5597,1 55403U 23014N   24234.61944596 -.00000030  00000-0  52788-5 0  9995,2 55403  70.0000  49.1881 0002596 264.9181  95.1682 14.98324575 87419,6950.21,96.107,573.879,570.27,0.0
55403.0,STARLINK-5597,PAYLOAD,2024-08-21 21:16:32,14.98322964,0.0002622,70.0001,48.5144,265.7128,94.3731,-2.5153e-05,-3.93e-06,0.0,0 STARLINK-5597,1 55403U 23014N   24234.88648831 -.00000393  00000-0 -25153-4 0  9995,2 55403  70.0001  48.5144 0002622 265.7128  94.3731 14.98322964 86511,6950.215,96.107,573.902,570.257,0.0
